GHGSAT-C1               
1 46278U 20061G   26191.96644039  .00033252  00000+0  24270-3 0  9998
2 46278  97.2097 277.9014 0000741 174.4925 185.6347 15.73205990327217
GHGSAT-C2               
1 47509U 21006DA  26191.50778417  .00004448  00000+0  12082-3 0  9997
2 47509  97.2140 238.3735 0006867  87.8289 272.3742 15.38072757303435
GHGSAT-C3               
1 52737U 22057F   26192.17110068  .00004275  00000+0  12984-3 0  9998
2 52737  97.6619 338.7344 0006635  47.7377 312.4427 15.34647802229210
GHGSAT-C5               
1 52744U 22057N   26192.21038613  .00003957  00000+0  12045-3 0  9990
2 52744  97.6706 340.3770 0007318  44.5920 315.5909 15.34624093229222
GHGSAT-C4               
1 52746U 22057Q   26192.19179157  .00003889  00000+0  11839-3 0  9992
2 52746  97.6545 337.5629 0006526  32.7044 327.4601 15.34634033229228
GHGSAT-C8               
1 56186U 23054J   26192.18970112  .00009949  00000+0  15718-3 0  9994
2 56186  97.2966 101.8309 0003490  17.6077 342.5297 15.53687567182166
GHGSAT-C6               
1 56204U 23054AC  26192.22026106  .00010051  00000+0  15889-3 0  9990
2 56204  97.3030 102.5618 0003841 328.1418  31.9603 15.53665502182187
GHGSAT-C7               
1 56209U 23054AH  26192.21047288  .00006799  00000+0  12133-3 0  9991
2 56209  97.2979 100.8924 0005321 322.9126  37.1758 15.50388519182116
GHGSAT-C12              
1 64529U 25135B   26192.13939204  .00002208  00000+0  10441-3 0  9997
2 64529  97.4765 306.7380 0006501  91.9429 268.2551 15.20429433 58464
GHGSAT-C13              
1 64548U 25135W   26192.12966080  .00003741  00000+0  16999-3 0  9996
2 64548  97.4793 307.3361 0002084  71.8572 288.2890 15.21375483 58497
