{"fetched_at":"2026-07-11T09:24:18.783Z","source":"https://celestrak.org/NORAD/elements/gp.php?NAME=GHGSAT&FORMAT=JSON","constellation":"ghgsat","records":[{"OBJECT_NAME":"GHGSAT-C1","OBJECT_ID":"2020-061G","EPOCH":"2026-07-10T23:11:40.449696","CLASSIFICATION_TYPE":"U","MEAN_MOTION":15.7320599,"ECCENTRICITY":0.0000741,"INCLINATION":97.2097,"RA_OF_ASC_NODE":277.9014,"ARG_OF_PERICENTER":174.4925,"MEAN_ANOMALY":185.6347,"EPHEMERIS_TYPE":0,"NORAD_CAT_ID":46278,"ELEMENT_SET_NO":999,"REV_AT_EPOCH":32721,"BSTAR":0.0002427,"MEAN_MOTION_DOT":0.00033252,"MEAN_MOTION_DDOT":0},{"OBJECT_NAME":"GHGSAT-C2","OBJECT_ID":"2021-006DA","EPOCH":"2026-07-10T12:11:12.552288","CLASSIFICATION_TYPE":"U","MEAN_MOTION":15.38072757,"ECCENTRICITY":0.0006867,"INCLINATION":97.214,"RA_OF_ASC_NODE":238.3735,"ARG_OF_PERICENTER":87.8289,"MEAN_ANOMALY":272.3742,"EPHEMERIS_TYPE":0,"NORAD_CAT_ID":47509,"ELEMENT_SET_NO":999,"REV_AT_EPOCH":30343,"BSTAR":0.00012082,"MEAN_MOTION_DOT":0.00004448,"MEAN_MOTION_DDOT":0},{"OBJECT_NAME":"GHGSAT-C3","OBJECT_ID":"2022-057F","EPOCH":"2026-07-11T04:06:23.098752","CLASSIFICATION_TYPE":"U","MEAN_MOTION":15.34647802,"ECCENTRICITY":0.0006635,"INCLINATION":97.6619,"RA_OF_ASC_NODE":338.7344,"ARG_OF_PERICENTER":47.7377,"MEAN_ANOMALY":312.4427,"EPHEMERIS_TYPE":0,"NORAD_CAT_ID":52737,"ELEMENT_SET_NO":999,"REV_AT_EPOCH":22921,"BSTAR":0.00012984,"MEAN_MOTION_DOT":0.00004275,"MEAN_MOTION_DDOT":0},{"OBJECT_NAME":"GHGSAT-C5","OBJECT_ID":"2022-057N","EPOCH":"2026-07-11T05:02:57.361632","CLASSIFICATION_TYPE":"U","MEAN_MOTION":15.34624093,"ECCENTRICITY":0.0007318,"INCLINATION":97.6706,"RA_OF_ASC_NODE":340.377,"ARG_OF_PERICENTER":44.592,"MEAN_ANOMALY":315.5909,"EPHEMERIS_TYPE":0,"NORAD_CAT_ID":52744,"ELEMENT_SET_NO":999,"REV_AT_EPOCH":22922,"BSTAR":0.00012045,"MEAN_MOTION_DOT":0.00003957,"MEAN_MOTION_DDOT":0},{"OBJECT_NAME":"GHGSAT-C4","OBJECT_ID":"2022-057Q","EPOCH":"2026-07-11T04:36:10.791648","CLASSIFICATION_TYPE":"U","MEAN_MOTION":15.34634033,"ECCENTRICITY":0.0006526,"INCLINATION":97.6545,"RA_OF_ASC_NODE":337.5629,"ARG_OF_PERICENTER":32.7044,"MEAN_ANOMALY":327.4601,"EPHEMERIS_TYPE":0,"NORAD_CAT_ID":52746,"ELEMENT_SET_NO":999,"REV_AT_EPOCH":22922,"BSTAR":0.00011839,"MEAN_MOTION_DOT":0.00003889,"MEAN_MOTION_DDOT":0},{"OBJECT_NAME":"GHGSAT-C8","OBJECT_ID":"2023-054J","EPOCH":"2026-07-11T04:33:10.176768","CLASSIFICATION_TYPE":"U","MEAN_MOTION":15.53687567,"ECCENTRICITY":0.000349,"INCLINATION":97.2966,"RA_OF_ASC_NODE":101.8309,"ARG_OF_PERICENTER":17.6077,"MEAN_ANOMALY":342.5297,"EPHEMERIS_TYPE":0,"NORAD_CAT_ID":56186,"ELEMENT_SET_NO":999,"REV_AT_EPOCH":18216,"BSTAR":0.00015718,"MEAN_MOTION_DOT":0.00009949,"MEAN_MOTION_DDOT":0},{"OBJECT_NAME":"GHGSAT-C6","OBJECT_ID":"2023-054AC","EPOCH":"2026-07-11T05:17:10.555584","CLASSIFICATION_TYPE":"U","MEAN_MOTION":15.53665502,"ECCENTRICITY":0.0003841,"INCLINATION":97.303,"RA_OF_ASC_NODE":102.5618,"ARG_OF_PERICENTER":328.1418,"MEAN_ANOMALY":31.9603,"EPHEMERIS_TYPE":0,"NORAD_CAT_ID":56204,"ELEMENT_SET_NO":999,"REV_AT_EPOCH":18218,"BSTAR":0.00015889,"MEAN_MOTION_DOT":0.00010051,"MEAN_MOTION_DDOT":0},{"OBJECT_NAME":"GHGSAT-C7","OBJECT_ID":"2023-054AH","EPOCH":"2026-07-11T05:03:04.856832","CLASSIFICATION_TYPE":"U","MEAN_MOTION":15.50388519,"ECCENTRICITY":0.0005321,"INCLINATION":97.2979,"RA_OF_ASC_NODE":100.8924,"ARG_OF_PERICENTER":322.9126,"MEAN_ANOMALY":37.1758,"EPHEMERIS_TYPE":0,"NORAD_CAT_ID":56209,"ELEMENT_SET_NO":999,"REV_AT_EPOCH":18211,"BSTAR":0.00012133,"MEAN_MOTION_DOT":0.00006799,"MEAN_MOTION_DDOT":0},{"OBJECT_NAME":"GHGSAT-C12","OBJECT_ID":"2025-135B","EPOCH":"2026-07-11T03:20:43.472256","CLASSIFICATION_TYPE":"U","MEAN_MOTION":15.20429433,"ECCENTRICITY":0.0006501,"INCLINATION":97.4765,"RA_OF_ASC_NODE":306.738,"ARG_OF_PERICENTER":91.9429,"MEAN_ANOMALY":268.2551,"EPHEMERIS_TYPE":0,"NORAD_CAT_ID":64529,"ELEMENT_SET_NO":999,"REV_AT_EPOCH":5846,"BSTAR":0.00010441,"MEAN_MOTION_DOT":0.00002208,"MEAN_MOTION_DDOT":0},{"OBJECT_NAME":"GHGSAT-C13","OBJECT_ID":"2025-135W","EPOCH":"2026-07-11T03:06:42.693120","CLASSIFICATION_TYPE":"U","MEAN_MOTION":15.21375483,"ECCENTRICITY":0.0002084,"INCLINATION":97.4793,"RA_OF_ASC_NODE":307.3361,"ARG_OF_PERICENTER":71.8572,"MEAN_ANOMALY":288.289,"EPHEMERIS_TYPE":0,"NORAD_CAT_ID":64548,"ELEMENT_SET_NO":999,"REV_AT_EPOCH":5849,"BSTAR":0.00016999,"MEAN_MOTION_DOT":0.00003741,"MEAN_MOTION_DDOT":0}]}
